GLOBALSTAR M023         
1 25621U 99004A   25351.62332774 -.00000056  00000+0  26615-3 0  9992
2 25621  52.0085 214.8707 0009936 167.5039 210.3045 12.62510577238908
GLOBALSTAR M040         
1 25622U 99004B   25351.67366381 -.00000075  00000+0  16055-3 0  9997
2 25622  51.9897 219.1421 0001972  74.3014 321.8147 12.62025125238427
GLOBALSTAR M036         
1 25623U 99004C   25351.59806463 -.00000106  00000+0 -33782-3 0  9991
2 25623  51.9959 116.8801 0010852  46.0956  41.1658 11.86618219200751
GLOBALSTAR M038         
1 25624U 99004D   25351.47764248 -.00000076  00000+0  15478-3 0  9990
2 25624  51.9976 263.7123 0002652  69.1572 102.1360 12.32537448224973
GLOBALSTAR M022         
1 25649U 99012A   25351.61131578 -.00000056  00000+0  37429-3 0  9994
2 25649  52.0012 152.2665 0003188 153.7433 284.2136 12.02508207198440
GLOBALSTAR M041         
1 25650U 99012B   25351.39200683 -.00000083  00000+0  26163-4 0  9999
2 25650  52.0037  39.8994 0000797 330.4994  29.5797 11.96681243200219
GLOBALSTAR M046         
1 25651U 99012C   25351.56127421 -.00000196  00000+0 -11858-2 0  9996
2 25651  52.0055  95.8428 0001469 238.1988 135.1628 12.09415905205855
GLOBALSTAR M037         
1 25652U 99012D   25351.48448522 -.00000079  00000+0  13831-3 0  9999
2 25652  52.0027 345.8426 0001741 231.4796 295.5988 12.62458436234427
